STARLINK-2617_new
1 18689C 21044BD  21326.16284565  .00006975  00000-0  47785-3 0  3262
2 18689  53.0527 272.1444 0002176  56.6057 252.0524 15.05565182    17
STARLINK-2617_old
1 28689C 21044BD  21325.13256970  .00002603  00000-0  17821-3 0  3258
2 28689  53.0531 276.7635 0002184  56.8610  64.4752 15.05588444    14
